CTC1_L_00140001-01
1 74451U 26222RD  26037.47802083  .00000000  00000+0  00000-0 0  9994
2 74451  85.0000   0.0000 0000000   0.0000   0.0000 14.15679836    17
CTC1_L_00140001-02
1 74452U 22172PA  26037.47802083  .00000000  00000+0  00000-0 0  9995
2 74452  85.0000   0.0000 0000000   0.0000  90.0000 14.15679836    17
CTC1_L_00140001-03
1 74453U 22369UN  26037.47802083  .00000000  00000+0  00000-0 0  9994
2 74453  85.0000   0.0000 0000000   0.0000 180.0000 14.15679836    18
CTC1_L_00140001-04
1 74454U 22611HW  26037.47802083  .00000000  00000+0  00000-0 0  9995
2 74454  85.0000   0.0000 0000000   0.0000 270.0000 14.15679836    19
CTC1_L_00140002-01
1 74455U 24832VE  26037.47802083  .00000000  00000+0  00000-0 0  9993
2 74455  85.0000  12.0000 0000000   0.0000  12.0000 14.15679836    17
CTC1_L_00140002-02
1 74456U 24865XD  26037.47802083  .00000000  00000+0  00000-0 0  9990
2 74456  85.0000  12.0000 0000000   0.0000 102.0000 14.15679836    18
CTC1_L_00140002-03
1 74457U 26687RX  26037.47802083  .00000000  00000+0  00000-0 0  9995
2 74457  85.0000  12.0000 0000000   0.0000 192.0000 14.15679836    18
CTC1_L_00140002-04
1 74458U 26905QG  26037.47802083  .00000000  00000+0  00000-0 0  9999
2 74458  85.0000  12.0000 0000000   0.0000 282.0000 14.15679836    19
CTC1_L_00140003-01
1 74459U 23389PF  26037.47802083  .00000000  00000+0  00000-0 0  9993
2 74459  85.0000  24.0000 0000000   0.0000  24.0000 14.15679836    17
CTC1_L_00140003-02
1 74460U 26695WO  26037.47802083  .00000000  00000+0  00000-0 0  9998
2 74460  85.0000  24.0000 0000000   0.0000 114.0000 14.15679836    19
CTC1_L_00140003-03
1 74461U 25855YY  26037.47802083  .00000000  00000+0  00000-0 0  9996
2 74461  85.0000  24.0000 0000000   0.0000 204.0000 14.15679836    10
CTC1_L_00140003-04
1 74462U 24699NJ  26037.47802083  .00000000  00000+0  00000-0 0  9992
2 74462  85.0000  24.0000 0000000   0.0000 294.0000 14.15679836    10
CTC1_L_00140004-01
1 74463U 23268OM  26037.47802083  .00000000  00000+0  00000-0 0  9994
2 74463  85.0000  36.0000 0000000   0.0000  36.0000 14.15679836    18
CTC1_L_00140004-02
1 74464U 25488AD  26037.47802083  .00000000  00000+0  00000-0 0  9991
2 74464  85.0000  36.0000 0000000   0.0000 126.0000 14.15679836    19
CTC1_L_00140004-03
1 74465U 22378LP  26037.47802083  .00000000  00000+0  00000-0 0  9997
2 74465  85.0000  36.0000 0000000   0.0000 216.0000 14.15679836    10
CTC1_L_00140004-04
1 74466U 23800DI  26037.47802083  .00000000  00000+0  00000-0 0  9999
2 74466  85.0000  36.0000 0000000   0.0000 306.0000 14.15679836    11
CTC1_L_00140005-01
1 74467U 26019DR  26037.47802083  .00000000  00000+0  00000-0 0  9995
2 74467  85.0000  48.0000 0000000   0.0000  48.0000 14.15679836    18
CTC1_L_00140005-02
1 74468U 23964OM  26037.47802083  .00000000  00000+0  00000-0 0  9992
2 74468  85.0000  48.0000 0000000   0.0000 138.0000 14.15679836    19
CTC1_L_00140005-03
1 74469U 22571P   26037.47802083  .00000000  00000+0  00000-0 0  9996
2 74469  85.0000  48.0000 0000000   0.0000 228.0000 14.15679836    10
CTC1_L_00140005-04
1 74470U 25487SH  26037.47802083  .00000000  00000+0  00000-0 0  9997
2 74470  85.0000  48.0000 0000000   0.0000 318.0000 14.15679836    12
CTC1_L_00140006-01
1 74471U 24100ID  26037.47802083  .00000000  00000+0  00000-0 0  9999
2 74471  85.0000  60.0000 0000000   0.0000  60.0000 14.15679836    11
CTC1_L_00140006-02
1 74472U 26168BQ  26037.47802083  .00000000  00000+0  00000-0 0  9996
2 74472  85.0000  60.0000 0000000   0.0000 150.0000 14.15679836    12
CTC1_L_00140006-03
1 74473U 22429AF  26037.47802083  .00000000  00000+0  00000-0 0  9993
2 74473  85.0000  60.0000 0000000   0.0000 240.0000 14.15679836    13
CTC1_L_00140006-04
1 74474U 24566VI  26037.47802083  .00000000  00000+0  00000-0 0  9998
2 74474  85.0000  60.0000 0000000   0.0000 330.0000 14.15679836    14
CTC1_L_00140007-01
1 74475U 25727MO  26037.47802083  .00000000  00000+0  00000-0 0  9999
2 74475  85.0000  72.0000 0000000   0.0000  72.0000 14.15679836    11
CTC1_L_00140007-02
1 74476U 23003JU  26037.47802083  .00000000  00000+0  00000-0 0  9995
2 74476  85.0000  72.0000 0000000   0.0000 162.0000 14.15679836    12
CTC1_L_00140007-03
1 74477U 25255MG  26037.47802083  .00000000  00000+0  00000-0 0  9997
2 74477  85.0000  72.0000 0000000   0.0000 252.0000 14.15679836    13
CTC1_L_00140007-04
1 74478U 22643ZM  26037.47802083  .00000000  00000+0  00000-0 0  9996
2 74478  85.0000  72.0000 0000000   0.0000 342.0000 14.15679836    14
CTC1_L_00140008-01
1 74479U 22433WP  26037.47802083  .00000000  00000+0  00000-0 0  9994
2 74479  85.0000  84.0000 0000000   0.0000  84.0000 14.15679836    11
CTC1_L_00140008-02
1 74480U 25780CO  26037.47802083  .00000000  00000+0  00000-0 0  9994
2 74480  85.0000  84.0000 0000000   0.0000 174.0000 14.15679836    13
CTC1_L_00140008-03
1 74481U 25598QO  26037.47802083  .00000000  00000+0  00000-0 0  9992
2 74481  85.0000  84.0000 0000000   0.0000 264.0000 14.15679836    14
CTC1_L_00140008-04
1 74482U 23411ML  26037.47802083  .00000000  00000+0  00000-0 0  9995
2 74482  85.0000  84.0000 0000000   0.0000 354.0000 14.15679836    15
CTC1_L_00140009-01
1 74483U 22565MQ  26037.47802083  .00000000  00000+0  00000-0 0  9995
2 74483  85.0000  96.0000 0000000   0.0000  96.0000 14.15679836    12
CTC1_L_00140009-02
1 74484U 23706L   26037.47802083  .00000000  00000+0  00000-0 0  9994
2 74484  85.0000  96.0000 0000000   0.0000 186.0000 14.15679836    13
CTC1_L_00140009-03
1 74485U 24156SU  26037.47802083  .00000000  00000+0  00000-0 0  9995
2 74485  85.0000  96.0000 0000000   0.0000 276.0000 14.15679836    14
CTC1_L_00140009-04
1 74486U 22998VS  26037.47802083  .00000000  00000+0  00000-0 0  9998
2 74486  85.0000  96.0000 0000000   0.0000   6.0000 14.15679836    16
CTC1_L_00140010-01
1 74487U 24381VS  26037.47802083  .00000000  00000+0  00000-0 0  9997
2 74487  85.0000 108.0000 0000000   0.0000 108.0000 14.15679836    14
CTC1_L_00140010-02
1 74488U 23540GB  26037.47802083  .00000000  00000+0  00000-0 0  9994
2 74488  85.0000 108.0000 0000000   0.0000 198.0000 14.15679836    14
CTC1_L_00140010-03
1 74489U 26685DE  26037.47802083  .00000000  00000+0  00000-0 0  9998
2 74489  85.0000 108.0000 0000000   0.0000 288.0000 14.15679836    15
CTC1_L_00140010-04
1 74490U 26613TY  26037.47802083  .00000000  00000+0  00000-0 0  9991
2 74490  85.0000 108.0000 0000000   0.0000  18.0000 14.15679836    18
CTC1_L_00140011-01
1 74491U 23335Y   26037.47802083  .00000000  00000+0  00000-0 0  9990
2 74491  85.0000 120.0000 0000000   0.0000 120.0000 14.15679836    17
CTC1_L_00140011-02
1 74492U 26871FK  26037.47802083  .00000000  00000+0  00000-0 0  9999
2 74492  85.0000 120.0000 0000000   0.0000 210.0000 14.15679836    18
CTC1_L_00140011-03
1 74493U 22836RE  26037.47802083  .00000000  00000+0  00000-0 0  9997
2 74493  85.0000 120.0000 0000000   0.0000 300.0000 14.15679836    19
CTC1_L_00140011-04
1 74494U 26142TB  26037.47802083  .00000000  00000+0  00000-0 0  9992
2 74494  85.0000 120.0000 0000000   0.0000  30.0000 14.15679836    10
CTC1_L_00140012-01
1 74495U 22417SA  26037.47802083  .00000000  00000+0  00000-0 0  9994
2 74495  85.0000 132.0000 0000000   0.0000 132.0000 14.15679836    17
CTC1_L_00140012-02
1 74496U 25788ZX  26037.47802083  .00000000  00000+0  00000-0 0  9999
2 74496  85.0000 132.0000 0000000   0.0000 222.0000 14.15679836    18
CTC1_L_00140012-03
1 74497U 23528XX  26037.47802083  .00000000  00000+0  00000-0 0  9990
2 74497  85.0000 132.0000 0000000   0.0000 312.0000 14.15679836    19
CTC1_L_00140012-04
1 74498U 26681NT  26037.47802083  .00000000  00000+0  00000-0 0  9994
2 74498  85.0000 132.0000 0000000   0.0000  42.0000 14.15679836    10
CTC1_L_00140013-01
1 74499U 25410KO  26037.47802083  .00000000  00000+0  00000-0 0  9994
2 74499  85.0000 144.0000 0000000   0.0000 144.0000 14.15679836    17
CTC1_L_00140013-02
1 74500U 26060IJ  26037.47802083  .00000000  00000+0  00000-0 0  9999
2 74500  85.0000 144.0000 0000000   0.0000 234.0000 14.15679836    10
CTC1_L_00140013-03
1 74501U 24822VG  26037.47802083  .00000000  00000+0  00000-0 0  9994
2 74501  85.0000 144.0000 0000000   0.0000 324.0000 14.15679836    11
CTC1_L_00140013-04
1 74502U 25517OK  26037.47802083  .00000000  00000+0  00000-0 0  9997
2 74502  85.0000 144.0000 0000000   0.0000  54.0000 14.15679836    12
CTC1_L_00140014-01
1 74503U 24958GL  26037.47802083  .00000000  00000+0  00000-0 0  9996
2 74503  85.0000 156.0000 0000000   0.0000 156.0000 14.15679836    19
CTC1_L_00140014-02
1 74504U 24281CK  26037.47802083  .00000000  00000+0  00000-0 0  9996
2 74504  85.0000 156.0000 0000000   0.0000 246.0000 14.15679836    10
CTC1_L_00140014-03
1 74505U 23126SE  26037.47802083  .00000000  00000+0  00000-0 0  9994
2 74505  85.0000 156.0000 0000000   0.0000 336.0000 14.15679836    11
CTC1_L_00140014-04
1 74506U 25595YQ  26037.47802083  .00000000  00000+0  00000-0 0  9997
2 74506  85.0000 156.0000 0000000   0.0000  66.0000 14.15679836    12
CTC1_L_00140015-01
1 74507U 22101GE  26037.47802083  .00000000  00000+0  00000-0 0  9998
2 74507  85.0000 168.0000 0000000   0.0000 168.0000 14.15679836    19
CTC1_L_00140015-02
1 74508U 23371OG  26037.47802083  .00000000  00000+0  00000-0 0  9999
2 74508  85.0000 168.0000 0000000   0.0000 258.0000 14.15679836    10
CTC1_L_00140015-03
1 74509U 24976GJ  26037.47802083  .00000000  00000+0  00000-0 0  9992
2 74509  85.0000 168.0000 0000000   0.0000 348.0000 14.15679836    11
CTC1_L_00140015-04
1 74510U 25988HR  26037.47802083  .00000000  00000+0  00000-0 0  9998
2 74510  85.0000 168.0000 0000000   0.0000  78.0000 14.15679836    13
CTC1_L_00140016-01
1 74511U 26947X   26037.47802083  .00000000  00000+0  00000-0 0  9995
2 74511  85.0000 180.0000 0000000   0.0000 180.0000 14.15679836    12
CTC1_L_00140016-02
1 74512U 24889SE  26037.47802083  .00000000  00000+0  00000-0 0  9999
2 74512  85.0000 180.0000 0000000   0.0000 270.0000 14.15679836    13
